#dP2020  4 14  0  0  0.00000000      97 __u+U IGS14 FIT  IAC
## 2101 172800.00000000   900.00000000 58953 0.0000000000000
+  123   C01C02C04C05C06C07C08C09C10C11C12C13C14C16C19C20C21
+        C22C23C24C25C26C27C28C29C30C32C33C34C35C36C37C38C39
+        C40C43C44C45C46C60E01E02E03E04E05E07E08E09E11E12E13
+        E14E15E18E19E21E24E25E26E27E30E31E33E36G01G02G03G04
+        G05G06G07G08G09G10G11G12G13G14G15G16G17G18G19G20G21
+        G22G23G24G25G26G27G28G29G30G31G32J01J02J03J07R01R02
+        R03R04R05R07R08R09R11R12R13R14R15R16R17R18R19R20R21
+        R22R23R24R26  0  0  0  0  0  0  0  0  0  0  0  0  0
++         0  0  0  0  0  0  0  0  0  0  0  0  0  0  0  0  0
++         0  0  0  0  0  0  0  0  0  0  0  0  0  0  0  0  0
++         0  0  0  0  0  0  0  0  0  0  0  0  0  0  0  0  0
++         0  0  0  0  0  0  0  0  0  0  0  0  0  0  0  0  0
++         0  0  0  0  0  0  0  0  0  0  0  0  0  0  0  0  0
++         0  0  0  0  0  0  0  0  0  0  0  0  0  0  0  0  0
++         0  0  0  0  0  0  0  0  0  0  0  0  0  0  0  0  0
++         0  0  0  0  0  0  0  0  0  0  0  0  0  0  0  0  0
%c M  cc GPS ccc cccc cccc cccc cccc ccccc ccccc ccccc ccccc
%c cc cc ccc ccc cccc cccc cccc cccc ccccc ccccc ccccc ccccc
%f  1.2500000  1.025000000  0.00000000000  0.000000000000000
%f  0.0000000  0.000000000  0.00000000000  0.000000000000000
%i    0    0    0    0      0      0      0      0         0
%i    0    0    0    0      0      0      0      0         0
/* INFORMATION & ANALYSIS CENTER (IAC)            FINAL DATA
/* S/V CLOCKS ARE ALIGNED TO GNSS TIME                      
/* G:C1WC2W R:C1PC2P E:C1XC5X C:C2IC6I J:C1CC2S             
/* PCV:IGS14_2101 OL/AL:FES2004  NONE     YN ORB:CoN CLK:CoN
*  2020 04 14 19 15  0.00000000
PC01 -34332.079387  24459.827252   -266.309044   -604.466951
PC02   4400.336337  41933.729842    968.983146    416.098526
PC04 -39620.928357  14422.633554   -505.654063   -154.023131
PC05  21923.921555  36037.297716    800.158503     24.671178
PC06  -7778.997839  27119.512339  31843.153618    244.593478
PC07 -24097.265075  25088.465810 -23958.246926    863.199447
PC08 -17735.343782  37523.375399  -6283.155328   -201.705712
PC09   5683.067839  35390.956264  22763.121079    472.520650
PC10  -8207.441714  27229.703085 -31062.891555   -856.721721
PC11  10147.756549  25958.568991   -716.148776   -303.189628
PC12  -3178.853083  21647.842644 -17277.327535    350.285779
PC13  -8527.354079  40410.009468   7899.862044    381.539008
PC14  10658.642862  15634.850039  20526.626550    298.304592
PC16  -3645.997385  29107.263230  30419.733645   -680.353287
PC19 -19939.184299 -12602.358769 -14892.793133    382.365902
PC20   -882.413418 -16046.159368 -22792.394882   -910.688366
PC21 -19435.373534  10008.023263  17382.801436   -285.058281
PC22 -27803.902932  -1831.359377   1826.504792   -835.485985
PC23  20134.790985  -4408.609717 -18812.459839   -911.749794
PC24  -7001.995106  23932.984392 -12513.702442   -858.083754
PC25  10008.073066  13290.562586 -22406.884752   -583.068142
PC26 -18265.304287  20722.931548   3832.623503    644.082596
PC27  10314.844595 -14246.039943  21644.170934    312.905648
PC28  17821.101807   5758.553606  20689.383713    303.911338
PC29 -15731.496758 -21740.303861  -7650.075099    214.920866
PC30  -3929.823148 -25663.777986  10195.020220    302.089684
PC32  19329.003468 -10150.805751 -17354.459430   -919.100130
PC33  19899.044953  12583.217653  14979.692543   -869.655754
PC34   4178.288883  25814.167652  -9789.086437   -633.044799
PC35 -18072.566949  -5265.736389 -20589.249029   -891.542021
PC36  -9509.994520 -13723.679115  22379.566907   -822.224003
PC37  18995.278506 -19963.822094  -4433.428307   -845.141046
PC38 -15363.714381  39159.248296  -2060.265608     72.356960
PC39   -592.103638  29814.391864  29864.111222     13.897500
PC40 -12886.619554  22385.642980 -33394.847783     34.855752
PC43  15522.213794  22004.652829   7372.689104   -150.175610
PC44 -10053.136946  14511.337666 -21624.608330   -171.623215
PC45 -20019.019442   4482.566379  18911.818157    109.036367
PC46   6647.345605 -23859.075727  12892.974537    885.710669
PC60   7311.802335  41487.370775  -2039.089399     -2.283836
PE01 -19558.207889  19131.582372 -11296.309368   -835.942980
PE02  19514.242970 -19151.408288  11352.879195    126.453409
PE03  10045.613300 -13911.042767 -24114.374436   -287.916964
PE04  10240.461756  21210.927972  17936.903690   -505.530264
PE05  24698.891371   1644.566880 -16223.031397   -388.629086
PE07 -24817.701314 -16106.731979  -1063.568150   -368.188193
PE08 -10657.574966 -21061.336216 -17861.840189   6192.348547
PE09  24939.681125  15896.789910   1009.643248   6093.000543
PE11  13351.744667  16485.543992  20650.599805   2271.644614
PE12   2544.563453  29148.587149   4572.810834   5854.168662
PE13 -13262.612597 -16649.014074 -20555.946959    400.066193
PE14   4106.323635  25314.707368 -15588.316183   -977.684379
PE15  -2768.964286 -29077.284205  -4754.937758    870.471117
PE18 -16401.584084 -22137.971829    958.463905  -1076.235675
PE19 -12001.108621  12419.250395  24048.121382   -588.640043
PE21 -27155.402093   9243.591229   7291.340560   -593.510491
PE24  18850.644377   6519.467205 -21893.923986   5507.338827
PE25  27158.015629  -9153.382984  -7412.434467   -509.058942
PE26 -16132.261551   5878.023986 -24105.295437   3302.406845
PE27 -18969.071725  -6259.394483  21840.058349    240.882816
PE30    698.851642 -18144.246306  23366.472230   3986.138589
PE31   -313.477966  18006.397842 -23489.012533   -472.282104
PE33  -9343.518924  24450.906442 -13826.038062   -468.407183
PE36  15978.080814  -5535.969236  24300.310654    572.949665
PG01  14212.642149 -18813.535566  11668.820100   -357.574715
PG02 -14615.369782  -3194.870590 -21308.930188   -439.461897
PG03  20053.359327 -12835.186438 -11719.371404   -145.781787
PG04   9433.308508 -12205.967604 -21608.435887    -76.172068
PG05 -25482.773854    742.244497  -7938.214507    -10.862345
PG06  -9506.593644 -14631.106895 -19959.373613   -252.646250
PG07   4469.753993 -25474.224319   5060.677059   -258.674852
PG08  17563.510025  -1396.629634  19970.565535    -30.635714
PG09  -1296.113251 -19707.782061 -17801.809996   -197.774922
PG10   9478.688956  12958.428897  21283.437232   -310.249774
PG11  13735.848051 -10500.810391  19737.589984   -305.196237
PG12 -21841.764154  10659.987863 -10748.012094    129.243990
PG13 -19327.432950  -7570.500663  16501.234485      2.124847
PG14  18482.181279  18634.298956  -4341.010399    -19.593989
PG15 -17554.587105   3848.524653  19357.112938   -237.983332
PG16  25939.417613   1171.215433  -6844.368546   -146.615837
PG17 -13757.746793 -22226.055031   5265.335653    248.753756
PG18  -7808.597396  25357.256410   1050.862020    156.326891
PG19 -17713.235757 -19497.186228  -3731.123245   -172.068697
PG20  -2597.102018  16904.830588  20192.013071    527.810115
PG21  -2021.882310  26146.505913   5812.645406    -14.202730
PG22  24450.558184  -9782.914935  -2619.355592   -784.711140
PG23   4676.838836 -16137.877455 -20126.438917   -122.096269
PG24 -14345.516487  17659.647442  13201.671295    -11.717435
PG25 -12235.999059  15438.431057 -17921.684107     -3.136168
PG26  20316.499405   6578.821479 -15964.703004    187.514376
PG27  21000.327846   9367.696262  13448.829783   -266.885925
PG28  -9659.923934 -13298.903091  21418.717965    725.376317
PG29  -2008.963313  18036.874973 -19425.362449    -81.078159
PG30  -3467.139624 -21978.991568  14380.577231   -198.392368
PG31  10858.743761  12818.125153 -20501.207470    -36.030804
PG32  15746.355764  21096.204366   4159.666622    259.623298
PJ01 -28303.816737  23443.633951  25692.596963   -323.507179
PJ02 -35068.528488  23268.970577   2234.645662     -2.381613
PJ03 -20879.749897  21683.624783 -24949.276893     -1.989373
PJ07 -25393.804876  33670.793810     52.356710      0.016349
PR01 -17452.052021 -12152.116080 -14091.850048     60.024236
PR02 -24246.215165  -4397.000590   6527.487251    421.824993
PR03 -14659.144330   5518.148795  20162.721265     13.302508
PR04   3197.617088  11970.647945  22327.493068     45.585320
PR05  19252.557418  11835.962764  11863.511433     48.640896
PR07  14249.112090  -5718.594676 -20341.496858    -35.459350
PR08  -3156.206072 -12054.984964 -22197.231623    -51.634655
PR09  19620.383639  -9497.167803 -13181.722022    127.272966
PR11   7026.639025 -17757.595494  16895.251722    -20.184910
PR12  -7447.570517  -8002.214024  23068.455713    122.571394
PR13 -18468.355158   6952.491464  16141.935984    -37.388947
PR14 -18610.980431  17450.831902   -291.518513     50.166794
PR15  -7956.854437  17909.830421 -16310.168569    106.332671
PR16   8251.467734   7480.114395 -22976.763112     -2.808559
PR17  -6505.128863  13727.964689 -20472.681061    317.300905
PR18   1869.509615  24335.744738  -7505.545828     32.025988
PR19   8482.028874  22274.799208   9093.236213    -88.682745
PR20  11183.357456   5636.889231  22239.102300   -409.155213
PR21   6059.616848 -14571.036842  20047.903235   -118.019046
PR22  -3033.392480 -24771.498809   4949.697707      3.475022
PR23 -10647.472833 -17770.081861 -14885.343024    299.194496
PR24 -11584.703506  -4657.946214 -22226.632707     -5.828457
PR26  11534.962381  10026.327398  20426.787097   -399.368460
EOF
